INTELSAT 902 (IS-902)   
1 26900U 01039A   26193.44544819 -.00000288  00000+0  00000+0 0  9997
2 26900   6.1786  71.4730 0004424  37.0011 292.1157  1.00270766 90943
INTELSAT 904 (IS-904)   
1 27380U 02007A   26193.41415079 -.00000231  00000+0  00000+0 0  9996
2 27380   6.9804  68.8780 0005373  23.7610 315.2945  1.00271287 52018
DIRECTV 5 (TEMPO 1)     
1 27426U 02023A   26193.61250087 -.00000062  00000+0  00000+0 0  9995
2 27426   4.9401  74.9919 0003014  43.0326 282.8654  1.00271051 88374
INTELSAT 905 (IS-905)   
1 27438U 02027A   26193.74966913  .00000087  00000+0  00000+0 0  9994
2 27438   6.8152  69.4884 0003441  44.7884 309.0322  1.00271081 51616
GALAXY 3C (G-3C)        
1 27445U 02030A   26193.82935427 -.00000157  00000+0  00000+0 0  9990
2 27445   3.7972  77.6419 0001484  36.9569  19.8538  1.00270648 46755
INTELSAT 906 (IS-906)   
1 27513U 02041A   26193.75808811  .00000007  00000+0  00000+0 0  9999
2 27513   5.8652  72.6060 0003904  21.8303 173.2591  1.00272652 87288
GALAXY 13 (HORIZONS-1)  
1 27954U 03044A   26193.74715580  .00000131  00000+0  00000+0 0  9999
2 27954   1.4833  83.5390 0002151  25.8486 300.2105  1.00270182 46820
INTELSAT 10-02          
1 28358U 04022A   26193.84792359 -.00000012  00000+0  00000+0 0  9994
2 28358   0.0534 253.1014 0000558 346.0698 355.8081  1.00272095 80813
DIRECTV 8               
1 28659U 05019A   26193.61068086  .00000002  00000+0  00000+0 0  9991
2 28659   0.0142 328.2419 0002926 156.8800 266.1680  1.00268966 77321
GALAXY 28 (G-28)        
1 28702U 05022A   26193.84281022 -.00000204  00000+0  00000+0 0  9991
2 28702   3.3625  78.6177 0002307  31.1693  97.2433  1.00270767 52231
GALAXY 16 (G-16)        
1 29236U 06023A   26193.82840095 -.00000127  00000+0  00000+0 0  9999
2 29236   0.0377 111.3355 0002438  11.0191   7.5822  1.00271154 73230
DIRECTV 9S              
1 29494U 06043A   26193.82805427 -.00000116  00000+0  00000+0 0  9995
2 29494   2.4844  80.5928 0004977  33.2365  13.7817  1.00270950 51640
GALAXY 17 (G-17)        
1 31307U 07016B   26193.83126095 -.00000210  00000+0  00000+0 0  9995
2 31307   3.0340  79.5770 0003540  34.1421  31.2235  1.00270344 70068
INTELSAT 11 (IS-11)     
1 32253U 07044B   26193.83933639 -.00000105  00000+0  00000+0 0  9990
2 32253   3.6296  78.3580 0004101 100.6009  66.8691  0.99051447 68702
HORIZONS-2              
1 32388U 07063B   26193.83351431 -.00000257  00000+0  00000+0 0  9992
2 32388   2.6657  80.3107 0003524  18.8546  57.8175  1.00269921 68071
DIRECTV 11              
1 32729U 08013A   26193.61458088 -.00000125  00000+0  00000+0 0  9993
2 32729   0.0123 272.0157 0000168  48.6418  91.9069  1.00267935 45849
GALAXY 18 (G-18)        
1 32951U 08024A   26193.75244250  .00000025  00000+0  00000+0 0  9999
2 32951   0.0046 117.4014 0002802   9.9046 311.2080  1.00270767 46106
GALAXY 19 (G-19)        
1 33376U 08045A   26193.61501420 -.00000139  00000+0  00000+0 0  9991
2 33376   0.0533 241.2529 0002323 240.6557 292.9966  1.00272056 65152
FM-5                    
1 35493U 09034A   26193.83108763 -.00000201  00000+0  00000+0 0  9999
2 35493   0.0413 268.7871 0000680  71.7405 163.2188  1.00271165 46902
INTELSAT 14 (IS-14)     
1 36097U 09064A   26193.83923433 -.00000274  00000+0  00000+0 0  9992
2 36097   0.0150  39.3210 0002216  79.7592  68.7795  1.00270692 60860
INTELSAT 15 (IS-15)     
1 36106U 09067A   26193.86500869 -.00000186  00000+0  00000+0 0  9995
2 36106   0.0171  62.8676 0002093  57.7978 206.6401  1.00270992 41485
DIRECTV 12              
1 36131U 09075A   26193.61388752 -.00000103  00000+0  00000+0 0  9999
2 36131   0.0086 118.5964 0000358  95.2183 194.9556  1.00272190 46807
INTELSAT 16 (IS-16)     
1 36397U 10006A   26193.83299431 -.00000245  00000+0  00000+0 0  9995
2 36397   0.0077  43.5311 0002273  93.0997  17.7620  1.00270625 59912
XM-5                    
1 37185U 10053A   26193.61146086 -.00000023  00000+0  00000+0 0  9990
2 37185   0.0658 265.3898 0001709 321.5312 168.5103  1.00271074 57738
INTELSAT 17 (IS-17)     
1 37238U 10065B   26193.75808811 -.00000002  00000+0  00000+0 0  9995
2 37238   0.0219  93.2179 0002655  24.5881 151.7468  1.00272120 53504
INTELSAT 28 (IS-28)     
1 37392U 11016A   26193.41406412 -.00000226  00000+0  00000+0 0  9995
2 37392   1.8688  82.3095 0003667  39.1874 286.1527  1.00271626 53530
INTELSAT 18 (IS-18)     
1 37834U 11056A   26193.81245419  .00000052  00000+0  00000+0 0  9998
2 37834   0.0152 311.6694 0001621 172.7670 278.7423  1.00269589 54063
INTELSAT 22 (IS-22)     
1 38098U 12011A   26193.86275079  .00000000  00000+0  00000+0 0  9996
2 38098   0.0423  71.7082 0001958  62.1117 179.6104  1.00271264  7441
INTELSAT 19 (IS-19)     
1 38356U 12030A   26193.80968086 -.00000057  00000+0  00000+0 0  9998
2 38356   0.0128  48.9370 0003062  76.4313 262.8093  1.00271151 50704
INTELSAT 20 (IS-20)     
1 38740U 12043A   26193.75808811 -.00000024  00000+0  00000+0 0  9996
2 38740   0.0134  64.6252 0001148 103.9098 103.5161  1.00270870 51009
INTELSAT 21 (IS-21)     
1 38749U 12045A   26193.83663432 -.00000286  00000+0  00000+0 0  9994
2 38749   0.0178  32.8621 0001720  87.2852  53.7723  1.00275518 50789
